500P/PANSTARRS,e,2.3015,111.5262,46.7354,3.417211,0.1560258,0.37604041,67.7029,06/09.0/2026,2000,g 16.0,4.0
# From MPC191640
502P/NEAT,e,11.3987,264.4756,37.7061,7.992775,0.0436172,0.47087791,13.4445,06/09.0/2026,2000,g  8.5,4.0
# From MPC191640
503P/PANSTARRS,e,10.5746,268.5786,17.9302,3.657361,0.1409134,0.48125612,30.3648,06/09.0/2026,2000,g 15.0,4.0
# From MPC191641
504P/WISE-PANSTARRS,e,8.8053,221.1143,308.5656,3.746051,0.1359388,0.40622219,57.8892,06/09.0/2026,2000,g 14.3,4.0
# From MPC191641
505P/Palomar,e,11.3883,111.9417,143.9375,4.114036,0.1181141,0.31087763,16.8201,06/09.0/2026,2000,g 14.9,4.0
# From MPC191641
506P/WISE-LINEAR,e,13.6595,325.5827,354.7122,5.587771,0.0746184,0.48158298,75.9615,06/09.0/2026,2000,g 12.7,4.0
# From MPC191641
507P/Lemmon,e,17.0711,232.9945,107.7816,6.202843,0.0637996,0.56798319,82.1570,06/09.0/2026,2000,g 12.6,4.0
# From MPC191641
508P/McNaught,e,31.7329,268.8255,338.8624,3.574205,0.1458596,0.56942291,48.5370,06/09.0/2026,2000,g 16.5,4.0
# From MPEC 2026-HH0
509P/Catalina,e,8.5965,275.2067,180.0263,7.069625,0.0524336,0.47764090,4.2804,06/09.0/2026,2000,g 10.0,4.0
# From MPEC 2026-J11
510P/Boattini,e,8.2269,280.6573,86.6889,6.480397,0.0597450,0.24769056,354.4930,06/09.0/2026,2000,g  9.5,4.0
# From MPC194204
511P/PANSTARRS,e,14.7843,271.0289,81.2909,3.010878,0.1886533,0.23726145,62.7783,06/09.0/2026,2000,g 17.1,4.0
# From MPC191641
512P/PANSTARRS,e,12.5694,73.7318,308.7342,5.695946,0.0725029,0.15703049,347.0150,06/09.0/2026,2000,g 10.0,4.0
# From MPC191641
513P/Broughton,e,21.3850,56.9970,304.8877,7.254506,0.0504420,0.55144194,18.1669,06/09.0/2026,2000,g 11.0,4.0
# From MPC194204
514P/Lemmon-PANSTARRS,e,6.5054,321.5978,89.4906,4.551669,0.1014958,0.36040351,19.9777,06/09.0/2026,2000,g 14.0,4.0
# From MPEC 2026-L50
515P/PANSTARRS,e,21.0566,119.4727,11.4232,4.363159,0.1081440,0.35451913,20.4566,06/09.0/2026,2000,g 14.5,4.0
# From MPC194204
516P/PANSTARRS,e,4.0212,104.6606,72.7164,3.663232,0.1405748,0.31420992,350.6219,06/09.0/2026,2000,g 15.7,4.0
# From MPC107687
1I/`Oumuamua,h,09/09.4886/2017,122.6778,24.5997,241.6845,1.199252,0.255240,2000,23.0,2.0
# From MPEC 2025-R69
2I/Borisov,h,12/09.0572/2019,44.2624,307.8024,209.2911,3.345952,1.997724,2000,11.0,4.0
# From MPEC 2026-G41
3I/ATLAS,h,10/29.4825/2025,175.1129,322.1535,128.0055,6.139884,1.356507,2000,11.8,4.0
